{
  "type": "FeatureCollection",
  "features": [
    {
      "type": "Feature",
      "properties": {
        "norad_id": 67123,
        "name": "STARLINK-36151",
        "group": "last-30-days",
        "lat": -40.738676332421456,
        "lon": 133.70338565552655,
        "alt_km": 310.2794889852603,
        "timestamp": "2025-12-24T05:51:18.329531+00:00",
        "meta_object_name": "STARLINK-36151",
        "meta_object_id": "2025-299X",
        "meta_epoch": "2025-12-23T22:00:01.999584",
        "meta_mean_motion": 15.89175339,
        "meta_eccentricity": 0.00014635,
        "meta_inclination": 42.998,
        "meta_ra_of_asc_node": 248.1528,
        "meta_arg_of_pericenter": 267.9862,
        "meta_mean_anomaly": 271.3225,
        "meta_ephemeris_type": 0,
        "meta_classification_type": "U",
        "meta_norad_cat_id": 67123,
        "meta_element_set_no": 999,
        "meta_rev_at_epoch": 260,
        "meta_bstar": -0.0069658056,
        "meta_mean_motion_dot": -0.01792706,
        "meta_mean_motion_ddot": 0,
        "tle_line1": "1 67123U 25299X   25357.91668981 -.01792706  00000+0 -69658-2 0  9995",
        "tle_line2": "2 67123  42.9980 248.1528 0001463 267.9862 271.3225 15.89175339  2608"
      },
      "geometry": {
        "type": "Point",
        "coordinates": [
          133.70338565552655,
          -40.738676332421456
        ]
      }
    },
    {
      "type": "Feature",
      "properties": {
        "norad_id": 67124,
        "name": "STARLINK-36195",
        "group": "last-30-days",
        "lat": -41.825937583343546,
        "lon": 139.94843857933967,
        "alt_km": 310.1734079142834,
        "timestamp": "2025-12-24T05:51:18.329541+00:00",
        "meta_object_name": "STARLINK-36195",
        "meta_object_id": "2025-299Y",
        "meta_epoch": "2025-12-23T22:00:01.999584",
        "meta_mean_motion": 15.89198024,
        "meta_eccentricity": 0.00015166,
        "meta_inclination": 42.998,
        "meta_ra_of_asc_node": 248.1406,
        "meta_arg_of_pericenter": 265.044,
        "meta_mean_anomaly": 279.0638,
        "meta_ephemeris_type": 0,
        "meta_classification_type": "U",
        "meta_norad_cat_id": 67124,
        "meta_element_set_no": 999,
        "meta_rev_at_epoch": 260,
        "meta_bstar": -0.0069217512,
        "meta_mean_motion_dot": -0.01784827,
        "meta_mean_motion_ddot": 0,
        "tle_line1": "1 67124U 25299Y   25357.91668981 -.01784827  00000+0 -69218-2 0  9993",
        "tle_line2": "2 67124  42.9980 248.1406 0001516 265.0440 279.0638 15.89198024  2603"
      },
      "geometry": {
        "type": "Point",
        "coordinates": [
          139.94843857933967,
          -41.825937583343546
        ]
      }
    },
    {
      "type": "Feature",
      "properties": {
        "norad_id": 67125,
        "name": "STARLINK-36219",
        "group": "last-30-days",
        "lat": -42.098423501260136,
        "lon": 141.9698770744368,
        "alt_km": 310.24176743536555,
        "timestamp": "2025-12-24T05:51:18.329551+00:00",
        "meta_object_name": "STARLINK-36219",
        "meta_object_id": "2025-299Z",
        "meta_epoch": "2025-12-23T22:00:01.999584",
        "meta_mean_motion": 15.8920826,
        "meta_eccentricity": 0.00013953,
        "meta_inclination": 42.9977,
        "meta_ra_of_asc_node": 248.1364,
        "meta_arg_of_pericenter": 267.3619,
        "meta_mean_anomaly": 278.2673,
        "meta_ephemeris_type": 0,
        "meta_classification_type": "U",
        "meta_norad_cat_id": 67125,
        "meta_element_set_no": 999,
        "meta_rev_at_epoch": 260,
        "meta_bstar": -0.0069208382,
        "meta_mean_motion_dot": -0.01785293,
        "meta_mean_motion_ddot": 0,
        "tle_line1": "1 67125U 25299Z   25357.91668981 -.01785293  00000+0 -69208-2 0  9991",
        "tle_line2": "2 67125  42.9977 248.1364 0001395 267.3619 278.2673 15.89208260  2605"
      },
      "geometry": {
        "type": "Point",
        "coordinates": [
          141.9698770744368,
          -42.098423501260136
        ]
      }
    },
    {
      "type": "Feature",
      "properties": {
        "norad_id": 67126,
        "name": "STARLINK-36223",
        "group": "last-30-days",
        "lat": -42.37952277603491,
        "lon": 144.42934630892734,
        "alt_km": 310.1594978054518,
        "timestamp": "2025-12-24T05:51:18.329561+00:00",
        "meta_object_name": "STARLINK-36223",
        "meta_object_id": "2025-299AA",
        "meta_epoch": "2025-12-23T22:00:01.999584",
        "meta_mean_motion": 15.89209899,
        "meta_eccentricity": 0.00015094,
        "meta_inclination": 42.9977,
        "meta_ra_of_asc_node": 248.1318,
        "meta_arg_of_pericenter": 264.1121,
        "meta_mean_anomaly": 283.3622,
        "meta_ephemeris_type": 0,
        "meta_classification_type": "U",
        "meta_norad_cat_id": 67126,
        "meta_element_set_no": 999,
        "meta_rev_at_epoch": 260,
        "meta_bstar": -0.0069210137,
        "meta_mean_motion_dot": -0.01785588,
        "meta_mean_motion_ddot": 0,
        "tle_line1": "1 67126U 25299AA  25357.91668981 -.01785588  00000+0 -69210-2 0  9992",
        "tle_line2": "2 67126  42.9977 248.1318 0001509 264.1121 283.3622 15.89209899  2605"
      },
      "geometry": {
        "type": "Point",
        "coordinates": [
          144.42934630892734,
          -42.37952277603491
        ]
      }
    },
    {
      "type": "Feature",
      "properties": {
        "norad_id": 67127,
        "name": "STARLINK-36164",
        "group": "last-30-days",
        "lat": -42.58763922401859,
        "lon": 146.66722221252604,
        "alt_km": 310.13225374485774,
        "timestamp": "2025-12-24T05:51:18.329571+00:00",
        "meta_object_name": "STARLINK-36164",
        "meta_object_id": "2025-299AB",
        "meta_epoch": "2025-12-23T22:00:01.999584",
        "meta_mean_motion": 15.89219105,
        "meta_eccentricity": 0.00015291,
        "meta_inclination": 42.9977,
        "meta_ra_of_asc_node": 248.1276,
        "meta_arg_of_pericenter": 265.6626,
        "meta_mean_anomaly": 283.471,
        "meta_ephemeris_type": 0,
        "meta_classification_type": "U",
        "meta_norad_cat_id": 67127,
        "meta_element_set_no": 999,
        "meta_rev_at_epoch": 260,
        "meta_bstar": -0.0069260796,
        "meta_mean_motion_dot": -0.01787454,
        "meta_mean_motion_ddot": 0,
        "tle_line1": "1 67127U 25299AB  25357.91668981 -.01787454  00000+0 -69261-2 0  9993",
        "tle_line2": "2 67127  42.9977 248.1276 0001529 265.6626 283.4710 15.89219105  2607"
      },
      "geometry": {
        "type": "Point",
        "coordinates": [
          146.66722221252604,
          -42.58763922401859
        ]
      }
    },
    {
      "type": "Feature",
      "properties": {
        "norad_id": 67128,
        "name": "STARLINK-35685",
        "group": "last-30-days",
        "lat": -42.93882387955525,
        "lon": 153.15158001449126,
        "alt_km": 310.2372191425238,
        "timestamp": "2025-12-24T05:51:18.329583+00:00",
        "meta_object_name": "STARLINK-35685",
        "meta_object_id": "2025-299AC",
        "meta_epoch": "2025-12-23T22:00:01.999584",
        "meta_mean_motion": 15.89193909,
        "meta_eccentricity": 0.00015022,
        "meta_inclination": 42.9975,
        "meta_ra_of_asc_node": 248.1152,
        "meta_arg_of_pericenter": 263.2841,
        "meta_mean_anomaly": 290.6658,
        "meta_ephemeris_type": 0,
        "meta_classification_type": "U",
        "meta_norad_cat_id": 67128,
        "meta_element_set_no": 999,
        "meta_rev_at_epoch": 260,
        "meta_bstar": -0.0069363081,
        "meta_mean_motion_dot": -0.01787704,
        "meta_mean_motion_ddot": 0,
        "tle_line1": "1 67128U 25299AC  25357.91668981 -.01787704  00000+0 -69363-2 0  9995",
        "tle_line2": "2 67128  42.9975 248.1152 0001502 263.2841 290.6658 15.89193909  2607"
      },
      "geometry": {
        "type": "Point",
        "coordinates": [
          153.15158001449126,
          -42.93882387955525
        ]
      }
    },
    {
      "type": "Feature",
      "properties": {
        "norad_id": 67129,
        "name": "STARLINK-36214",
        "group": "last-30-days",
        "lat": -42.775997523567504,
        "lon": 149.31619119179453,
        "alt_km": 310.25741653760997,
        "timestamp": "2025-12-24T05:51:18.329593+00:00",
        "meta_object_name": "STARLINK-36214",
        "meta_object_id": "2025-299AD",
        "meta_epoch": "2025-12-23T22:00:01.999584",
        "meta_mean_motion": 15.89217337,
        "meta_eccentricity": 0.00013583,
        "meta_inclination": 42.9976,
        "meta_ra_of_asc_node": 248.1224,
        "meta_arg_of_pericenter": 265.3563,
        "meta_mean_anomaly": 285.7411,
        "meta_ephemeris_type": 0,
        "meta_classification_type": "U",
        "meta_norad_cat_id": 67129,
        "meta_element_set_no": 999,
        "meta_rev_at_epoch": 260,
        "meta_bstar": -0.0069213437,
        "meta_mean_motion_dot": -0.01786076,
        "meta_mean_motion_ddot": 0,
        "tle_line1": "1 67129U 25299AD  25357.91668981 -.01786076  00000+0 -69213-2 0  9991",
        "tle_line2": "2 67129  42.9976 248.1224 0001358 265.3563 285.7411 15.89217337  2606"
      },
      "geometry": {
        "type": "Point",
        "coordinates": [
          149.31619119179453,
          -42.775997523567504
        ]
      }
    }
  ]
}